{
  "type": "FeatureCollection",
  "features": [
    {
      "type": "Feature",
      "properties": {
        "norad_id": 27954,
        "name": "GALAXY 13 (HORIZONS-1)",
        "group": "intelsat",
        "lat": -0.23356589541440761,
        "lon": 70.23822900339545,
        "alt_km": 35794.11371919581,
        "timestamp": "2025-12-07T09:35:09.459568+00:00",
        "meta_object_name": "GALAXY 13 (HORIZONS-1)",
        "meta_object_id": "2003-044A",
        "meta_epoch": "2025-12-06T18:05:22.305696",
        "meta_mean_motion": 1.00274018,
        "meta_eccentricity": 0.00020579,
        "meta_inclination": 0.92,
        "meta_ra_of_asc_node": 86.5488,
        "meta_arg_of_pericenter": 166.6285,
        "meta_mean_anomaly": 303.9764,
        "meta_ephemeris_type": 0,
        "meta_classification_type": "U",
        "meta_norad_cat_id": 27954,
        "meta_element_set_no": 999,
        "meta_rev_at_epoch": 4464,
        "meta_bstar": 0,
        "meta_mean_motion_dot": 1.38e-06,
        "meta_mean_motion_ddot": 0,
        "tle_line1": "1 27954U 03044A   25340.75373039  .00000138  00000+0  00000+0 0  9999",
        "tle_line2": "2 27954   0.9200  86.5488 0002057 166.6285 303.9764  1.00274018 44640"
      },
      "geometry": {
        "type": "Point",
        "coordinates": [
          70.23822900339545,
          -0.23356589541440761
        ]
      }
    },
    {
      "type": "Feature",
      "properties": {
        "norad_id": 28358,
        "name": "INTELSAT 10-02",
        "group": "intelsat",
        "lat": -0.0009009223411330218,
        "lon": -140.79293943010387,
        "alt_km": 35784.18035879261,
        "timestamp": "2025-12-07T09:35:09.459580+00:00",
        "meta_object_name": "INTELSAT 10-02",
        "meta_object_id": "2004-022A",
        "meta_epoch": "2025-12-06T22:13:15.021984",
        "meta_mean_motion": 1.00272478,
        "meta_eccentricity": 0.00013059,
        "meta_inclination": 0.0373,
        "meta_ra_of_asc_node": 74.6122,
        "meta_arg_of_pericenter": 217.003,
        "meta_mean_anomaly": 116.6694,
        "meta_ephemeris_type": 0,
        "meta_classification_type": "U",
        "meta_norad_cat_id": 28358,
        "meta_element_set_no": 999,
        "meta_rev_at_epoch": 7862,
        "meta_bstar": 0,
        "meta_mean_motion_dot": -5e-08,
        "meta_mean_motion_ddot": 0,
        "tle_line1": "1 28358U 04022A   25340.92586831 -.00000005  00000+0  00000+0 0  9994",
        "tle_line2": "2 28358   0.0373  74.6122 0001305 217.0030 116.6694  1.00272478 78622"
      },
      "geometry": {
        "type": "Point",
        "coordinates": [
          -140.79293943010387,
          -0.0009009223411330218
        ]
      }
    },
    {
      "type": "Feature",
      "properties": {
        "norad_id": 28626,
        "name": "XM-3 (RHYTHM)",
        "group": "intelsat",
        "lat": -0.14721707298810174,
        "lon": -0.12655272183829044,
        "alt_km": 36154.751997613814,
        "timestamp": "2025-12-07T09:35:09.459593+00:00",
        "meta_object_name": "XM-3 (RHYTHM)",
        "meta_object_id": "2005-008A",
        "meta_epoch": "2025-12-06T21:11:20.952960",
        "meta_mean_motion": 0.9895447,
        "meta_eccentricity": 0.00011953,
        "meta_inclination": 0.1591,
        "meta_ra_of_asc_node": 81.0554,
        "meta_arg_of_pericenter": 260.1717,
        "meta_mean_anomaly": 194.6387,
        "meta_ephemeris_type": 0,
        "meta_classification_type": "U",
        "meta_norad_cat_id": 28626,
        "meta_element_set_no": 999,
        "meta_rev_at_epoch": 4069,
        "meta_bstar": 0,
        "meta_mean_motion_dot": -2.67e-06,
        "meta_mean_motion_ddot": 0,
        "tle_line1": "1 28626U 05008A   25340.88288140 -.00000267  00000+0  00000+0 0  9994",
        "tle_line2": "2 28626   0.1591  81.0554 0001195 260.1717 194.6387  0.98954470 40698"
      },
      "geometry": {
        "type": "Point",
        "coordinates": [
          -0.12655272183829044,
          -0.14721707298810174
        ]
      }
    },
    {
      "type": "Feature",
      "properties": {
        "norad_id": 28659,
        "name": "DIRECTV 8",
        "group": "intelsat",
        "lat": 0.030829604556682173,
        "lon": 101.14120366557998,
        "alt_km": 35798.79988725344,
        "timestamp": "2025-12-07T09:35:09.459605+00:00",
        "meta_object_name": "DIRECTV 8",
        "meta_object_id": "2005-019A",
        "meta_epoch": "2025-12-06T21:39:25.763328",
        "meta_mean_motion": 1.00271231,
        "meta_eccentricity": 0.00032584,
        "meta_inclination": 0.0172,
        "meta_ra_of_asc_node": 325.6565,
        "meta_arg_of_pericenter": 291.2333,
        "meta_mean_anomaly": 24.854,
        "meta_ephemeris_type": 0,
        "meta_classification_type": "U",
        "meta_norad_cat_id": 28659,
        "meta_element_set_no": 999,
        "meta_rev_at_epoch": 7514,
        "meta_bstar": 0,
        "meta_mean_motion_dot": 7e-08,
        "meta_mean_motion_ddot": 0,
        "tle_line1": "1 28659U 05019A   25340.90238152  .00000007  00000+0  00000+0 0  9994",
        "tle_line2": "2 28659   0.0172 325.6565 0003258 291.2333  24.8540  1.00271231 75142"
      },
      "geometry": {
        "type": "Point",
        "coordinates": [
          101.14120366557998,
          0.030829604556682173
        ]
      }
    },
    {
      "type": "Feature",
      "properties": {
        "norad_id": 28702,
        "name": "GALAXY 28 (G-28)",
        "group": "intelsat",
        "lat": 2.166650547654768,
        "lon": 131.46306379095802,
        "alt_km": 35792.301363873325,
        "timestamp": "2025-12-07T09:35:09.459618+00:00",
        "meta_object_name": "GALAXY 28 (G-28)",
        "meta_object_id": "2005-022A",
        "meta_epoch": "2025-12-06T21:48:17.413632",
        "meta_mean_motion": 1.00271622,
        "meta_eccentricity": 0.00026405,
        "meta_inclination": 2.8037,
        "meta_ra_of_asc_node": 81.3499,
        "meta_arg_of_pericenter": 175.1863,
        "meta_mean_anomaly": 57.7895,
        "meta_ephemeris_type": 0,
        "meta_classification_type": "U",
        "meta_norad_cat_id": 28702,
        "meta_element_set_no": 999,
        "meta_rev_at_epoch": 5004,
        "meta_bstar": 0,
        "meta_mean_motion_dot": -1.83e-06,
        "meta_mean_motion_ddot": 0,
        "tle_line1": "1 28702U 05022A   25340.90853488 -.00000183  00000+0  00000+0 0  9998",
        "tle_line2": "2 28702   2.8037  81.3499 0002640 175.1863  57.7895  1.00271622 50049"
      },
      "geometry": {
        "type": "Point",
        "coordinates": [
          131.46306379095802,
          2.166650547654768
        ]
      }
    },
    {
      "type": "Feature",
      "properties": {
        "norad_id": 29236,
        "name": "GALAXY 16 (G-16)",
        "group": "intelsat",
        "lat": -0.00037098452605320234,
        "lon": 121.17545485261252,
        "alt_km": 35796.212904784465,
        "timestamp": "2025-12-07T09:35:09.459630+00:00",
        "meta_object_name": "GALAXY 16 (G-16)",
        "meta_object_id": "2006-023A",
        "meta_epoch": "2025-12-06T21:45:17.700768",
        "meta_mean_motion": 1.00271112,
        "meta_eccentricity": 0.00030012,
        "meta_inclination": 0.0075,
        "meta_ra_of_asc_node": 231.4168,
        "meta_arg_of_pericenter": 31.1429,
        "meta_mean_anomaly": 40.6952,
        "meta_ephemeris_type": 0,
        "meta_classification_type": "U",
        "meta_norad_cat_id": 29236,
        "meta_element_set_no": 999,
        "meta_rev_at_epoch": 7104,
        "meta_bstar": 0,
        "meta_mean_motion_dot": -1.21e-06,
        "meta_mean_motion_ddot": 0,
        "tle_line1": "1 29236U 06023A   25340.90645487 -.00000121  00000+0  00000+0 0  9993",
        "tle_line2": "2 29236   0.0075 231.4168 0003001  31.1429  40.6952  1.00271112 71048"
      },
      "geometry": {
        "type": "Point",
        "coordinates": [
          121.17545485261252,
          -0.00037098452605320234
        ]
      }
    },
    {
      "type": "Feature",
      "properties": {
        "norad_id": 29494,
        "name": "DIRECTV 9S",
        "group": "intelsat",
        "lat": 1.1409374025747991,
        "lon": 118.95537939792248,
        "alt_km": 35796.59379060848,
        "timestamp": "2025-12-07T09:35:09.459642+00:00",
        "meta_object_name": "DIRECTV 9S",
        "meta_object_id": "2006-043A",
        "meta_epoch": "2025-12-06T21:44:40.261056",
        "meta_mean_motion": 1.0027054,
        "meta_eccentricity": 0.00032429,
        "meta_inclination": 1.9245,
        "meta_ra_of_asc_node": 83.2693,
        "meta_arg_of_pericenter": 174.2749,
        "meta_mean_anomaly": 43.3512,
        "meta_ephemeris_type": 0,
        "meta_classification_type": "U",
        "meta_norad_cat_id": 29494,
        "meta_element_set_no": 999,
        "meta_rev_at_epoch": 4945,
        "meta_bstar": 0,
        "meta_mean_motion_dot": -1.08e-06,
        "meta_mean_motion_ddot": 0,
        "tle_line1": "1 29494U 06043A   25340.90602154 -.00000108  00000+0  00000+0 0  9990",
        "tle_line2": "2 29494   1.9245  83.2693 0003242 174.2749  43.3512  1.00270540 49456"
      },
      "geometry": {
        "type": "Point",
        "coordinates": [
          118.95537939792248,
          1.1409374025747991
        ]
      }
    }
  ]
}